{"type": "FeatureCollection", "features": [{"type": "Feature", "properties": {"norad_id": 66549, "name": "SHIJIAN-28 (SJ-28)", "group": "last-30-days", "lat": 0.9054710628737079, "lon": 84.52137907793438, "alt_km": 35784.97914416013, "timestamp": "2025-12-26T15:29:38.164902+00:00", "meta": {"OBJECT_NAME": "SHIJIAN-28 (SJ-28)", "OBJECT_ID": "2025-277A", "EPOCH": "2025-12-25T13:29:07.948320", "MEAN_MOTION": 1.0026485, "ECCENTRICITY": 9.97e-05, "INCLINATION": 4.9871, "RA_OF_ASC_NODE": 274.7549, "ARG_OF_PERICENTER": 127.1328, "MEAN_ANOMALY": 11.4336, "EPHEMERIS_TYPE": 0, "CLASSIFICATION_TYPE": "U", "NORAD_CAT_ID": 66549, "ELEMENT_SET_NO": 999, "REV_AT_EPOCH": 41, "BSTAR": 0, "MEAN_MOTION_DOT": -3.37e-06, "MEAN_MOTION_DDOT": 0}, "tle": {"line1": "1 66549U 25277A   25359.56189755 -.00000337  00000+0  00000+0 0  9995", "line2": "2 66549   4.9871 274.7549 0000997 127.1328  11.4336  1.00264850   417"}}, "geometry": {"type": "Point", "coordinates": [84.52137907793438, 0.9054710628737079]}}, {"type": "Feature", "properties": {"norad_id": 66550, "name": "CZ-7A R/B", "group": "last-30-days", "lat": 11.221758090803938, "lon": -47.698887134984176, "alt_km": 16057.512492060785, "timestamp": "2025-12-26T15:29:38.164954+00:00", "meta": {"OBJECT_NAME": "CZ-7A R/B", "OBJECT_ID": "2025-277B", "EPOCH": "2025-12-23T05:53:12.433056", "MEAN_MOTION": 3.27661077, "ECCENTRICITY": 0.66094342, "INCLINATION": 14.3426, "RA_OF_ASC_NODE": 263.9223, "ARG_OF_PERICENTER": 200.4471, "MEAN_ANOMALY": 110.5172, "EPHEMERIS_TYPE": 0, "CLASSIFICATION_TYPE": "U", "NORAD_CAT_ID": 66550, "ELEMENT_SET_NO": 999, "REV_AT_EPOCH": 65, "BSTAR": 0.0068493476, "MEAN_MOTION_DOT": 0.10979967, "MEAN_MOTION_DDOT": 1.8894821e-05}, "tle": {"line1": "1 66550U 25277B   25357.24528279  .10979967  18895-4  68493-2 0  9991", "line2": "2 66550  14.3426 263.9223 6609434 200.4471 110.5172  3.27661077   658"}}, "geometry": {"type": "Point", "coordinates": [-47.698887134984176, 11.221758090803938]}}, {"type": "Feature", "properties": {"norad_id": 66554, "name": "GLOBAL-33", "group": "last-30-days", "lat": 18.42159500167481, "lon": 134.9987159976992, "alt_km": 464.699001090813, "timestamp": "2025-12-26T15:29:38.164982+00:00", "meta": {"OBJECT_NAME": "GLOBAL-33", "OBJECT_ID": "2025-267A", "EPOCH": "2025-12-26T07:00:36.918144", "MEAN_MOTION": 15.31789204, "ECCENTRICITY": 0.00049594, "INCLINATION": 42.0213, "RA_OF_ASC_NODE": 338.7502, "ARG_OF_PERICENTER": 185.8962, "MEAN_ANOMALY": 174.1818, "EPHEMERIS_TYPE": 0, "CLASSIFICATION_TYPE": "U", "NORAD_CAT_ID": 66554, "ELEMENT_SET_NO": 999, "REV_AT_EPOCH": 548, "BSTAR": 0.00047882598, "MEAN_MOTION_DOT": 0.00014797, "MEAN_MOTION_DDOT": 0}, "tle": {"line1": "1 66554U 25267A   25360.29209396  .00014797  00000+0  47883-3 0  9994", "line2": "2 66554  42.0213 338.7502 0004959 185.8962 174.1818 15.31789204  5481"}}, "geometry": {"type": "Point", "coordinates": [134.9987159976992, 18.42159500167481]}}, {"type": "Feature", "properties": {"norad_id": 66557, "name": "STARLINK-35699", "group": "last-30-days", "lat": -8.481362975595555, "lon": 30.8360813903579, "alt_km": 465.4072845535875, "timestamp": "2025-12-26T15:29:38.164995+00:00", "meta": {"OBJECT_NAME": "STARLINK-35699", "OBJECT_ID": "2025-268A", "EPOCH": "2025-12-26T06:00:02.999808", "MEAN_MOTION": 15.35490008, "ECCENTRICITY": 0.00012239, "INCLINATION": 43.0005, "RA_OF_ASC_NODE": 42.303, "ARG_OF_PERICENTER": 256.1046, "MEAN_ANOMALY": 63.6506, "EPHEMERIS_TYPE": 0, "CLASSIFICATION_TYPE": "U", "NORAD_CAT_ID": 66557, "ELEMENT_SET_NO": 999, "REV_AT_EPOCH": 606, "BSTAR": -0.064142997, "MEAN_MOTION_DOT": -0.02042558, "MEAN_MOTION_DDOT": 0}, "tle": {"line1": "1 66557U 25268A   25360.25003472 -.02042558  00000+0 -64143-1 0  9997", "line2": "2 66557  43.0005  42.3030 0001223 256.1046  63.6506 15.35490008  6060"}}, "geometry": {"type": "Point", "coordinates": [30.8360813903579, -8.481362975595555]}}, {"type": "Feature", "properties": {"norad_id": 66558, "name": "STARLINK-35695", "group": "last-30-days", "lat": 2.963818296162817, "lon": 43.1889473209768, "alt_km": 461.7477967946261, "timestamp": "2025-12-26T15:29:38.165007+00:00", "meta": {"OBJECT_NAME": "STARLINK-35695", "OBJECT_ID": "2025-268B", "EPOCH": "2025-12-26T06:00:02.999808", "MEAN_MOTION": 15.36330401, "ECCENTRICITY": 0.00013275, "INCLINATION": 43.0004, "RA_OF_ASC_NODE": 42.2657, "ARG_OF_PERICENTER": 259.3553, "MEAN_ANOMALY": 76.0484, "EPHEMERIS_TYPE": 0, "CLASSIFICATION_TYPE": "U", "NORAD_CAT_ID": 66558, "ELEMENT_SET_NO": 999, "REV_AT_EPOCH": 606, "BSTAR": -0.062724567, "MEAN_MOTION_DOT": -0.0201756, "MEAN_MOTION_DDOT": 0}, "tle": {"line1": "1 66558U 25268B   25360.25003472 -.02017560  00000+0 -62725-1 0  9997", "line2": "2 66558  43.0004  42.2657 0001327 259.3553  76.0484 15.36330401  6061"}}, "geometry": {"type": "Point", "coordinates": [43.1889473209768, 2.963818296162817]}}, {"type": "Feature", "properties": {"norad_id": 66559, "name": "STARLINK-35419", "group": "last-30-days", "lat": 42.82148054714131, "lon": 123.75799419063004, "alt_km": 441.32051195611893, "timestamp": "2025-12-26T15:29:38.165018+00:00", "meta": {"OBJECT_NAME": "STARLINK-35419", "OBJECT_ID": "2025-268C", "EPOCH": "2025-12-26T06:00:02.999808", "MEAN_MOTION": 15.41482916, "ECCENTRICITY": 0.00014388, "INCLINATION": 43.0012, "RA_OF_ASC_NODE": 42.0853, "ARG_OF_PERICENTER": 273.2794, "MEAN_ANOMALY": 135.9521, "EPHEMERIS_TYPE": 0, "CLASSIFICATION_TYPE": "U", "NORAD_CAT_ID": 66559, "ELEMENT_SET_NO": 999, "REV_AT_EPOCH": 606, "BSTAR": -0.054356976, "MEAN_MOTION_DOT": -0.02067428, "MEAN_MOTION_DDOT": 0}, "tle": {"line1": "1 66559U 25268C   25360.25003472 -.02067428  00000+0 -54357-1 0  9998", "line2": "2 66559  43.0012  42.0853 0001438 273.2794 135.9521 15.41482916  6064"}}, "geometry": {"type": "Point", "coordinates": [123.75799419063004, 42.82148054714131]}}, {"type": "Feature", "properties": {"norad_id": 66560, "name": "STARLINK-35411", "group": "last-30-days", "lat": 42.81743140277551, "lon": 135.9005958076507, "alt_km": 439.7000683418055, "timestamp": "2025-12-26T15:29:38.165029+00:00", "meta": {"OBJECT_NAME": "STARLINK-35411", "OBJECT_ID": "2025-268D", "EPOCH": "2025-12-26T06:00:02.999808", "MEAN_MOTION": 15.42013867, "ECCENTRICITY": 0.00013538, "INCLINATION": 43.0008, "RA_OF_ASC_NODE": 42.0654, "ARG_OF_PERICENTER": 269.4979, "MEAN_ANOMALY": 147.8802, "EPHEMERIS_TYPE": 0, "CLASSIFICATION_TYPE": "U", "NORAD_CAT_ID": 66560, "ELEMENT_SET_NO": 999, "REV_AT_EPOCH": 606, "BSTAR": -0.053313418, "MEAN_MOTION_DOT": -0.02064707, "MEAN_MOTION_DDOT": 0}, "tle": {"line1": "1 66560U 25268D   25360.25003472 -.02064707  00000+0 -53313-1 0  9998", "line2": "2 66560  43.0008  42.0654 0001353 269.4979 147.8802 15.42013867  6068"}}, "geometry": {"type": "Point", "coordinates": [135.9005958076507, 42.81743140277551]}}, {"type": "Feature", "properties": {"norad_id": 66561, "name": "STARLINK-35305", "group": "last-30-days", "lat": 36.62906403835422, "lon": 166.8049586498138, "alt_km": 435.5910335268454, "timestamp": "2025-12-26T15:29:38.165040+00:00", "meta": {"OBJECT_NAME": "STARLINK-35305", "OBJECT_ID": "2025-268E", "EPOCH": "2025-12-26T06:00:02.999808", "MEAN_MOTION": 15.43673902, "ECCENTRICITY": 0.0001329, "INCLINATION": 43.0008, "RA_OF_ASC_NODE": 42.0125, "ARG_OF_PERICENTER": 279.8945, "MEAN_ANOMALY": 159.5115, "EPHEMERIS_TYPE": 0, "CLASSIFICATION_TYPE": "U", "NORAD_CAT_ID": 66561, "ELEMENT_SET_NO": 999, "REV_AT_EPOCH": 606, "BSTAR": -0.049307854, "MEAN_MOTION_DOT": -0.02025367, "MEAN_MOTION_DDOT": 0}, "tle": {"line1": "1 66561U 25268E   25360.25003472 -.02025367  00000+0 -49308-1 0  9997", "line2": "2 66561  43.0008  42.0125 0001329 279.8945 159.5115 15.43673902  6063"}}, "geometry": {"type": "Point", "coordinates": [166.8049586498138, 36.62906403835422]}}, {"type": "Feature", "properties": {"norad_id": 66562, "name": "STARLINK-35579", "group": "last-30-days", "lat": 40.69096032892008, "lon": 152.4259475245957, "alt_km": 437.5561732525839, "timestamp": "2025-12-26T15:29:38.165053+00:00", "meta": {"OBJECT_NAME": "STARLINK-35579", "OBJECT_ID": "2025-268F", "EPOCH": "2025-12-26T06:00:02.999808", "MEAN_MOTION": 15.42839817, "ECCENTRICITY": 0.00014358, "INCLINATION": 43.0004, "RA_OF_ASC_NODE": 42.0386, "ARG_OF_PERICENTER": 278.2765, "MEAN_ANOMALY": 150.3963, "EPHEMERIS_TYPE": 0, "CLASSIFICATION_TYPE": "U", "NORAD_CAT_ID": 66562, "ELEMENT_SET_NO": 999, "REV_AT_EPOCH": 606, "BSTAR": -0.051019957, "MEAN_MOTION_DOT": -0.02035695, "MEAN_MOTION_DDOT": 0}, "tle": {"line1": "1 66562U 25268F   25360.25003472 -.02035695  00000+0 -51020-1 0  9997", "line2": "2 66562  43.0004  42.0386 0001435 278.2765 150.3963 15.42839817  6068"}}, "geometry": {"type": "Point", "coordinates": [152.4259475245957, 40.69096032892008]}}, {"type": "Feature", "properties": {"norad_id": 66563, "name": "STARLINK-35437", "group": "last-30-days", "lat": 31.320734768270253, "lon": 178.9292777532854, "alt_km": 433.93092701118985, "timestamp": "2025-12-26T15:29:38.165064+00:00", "meta": {"OBJECT_NAME": "STARLINK-35437", "OBJECT_ID": "2025-268G", "EPOCH": "2025-12-26T06:00:02.999808", "MEAN_MOTION": 15.44512358, "ECCENTRICITY": 0.00013495, "INCLINATION": 43.0005, "RA_OF_ASC_NODE": 41.987, "ARG_OF_PERICENTER": 282.5619, "MEAN_ANOMALY": 167.0143, "EPHEMERIS_TYPE": 0, "CLASSIFICATION_TYPE": "U", "NORAD_CAT_ID": 66563, "ELEMENT_SET_NO": 999, "REV_AT_EPOCH": 601, "BSTAR": -0.047952308, "MEAN_MOTION_DOT": -0.02026982, "MEAN_MOTION_DDOT": 0}, "tle": {"line1": "1 66563U 25268G   25360.25003472 -.02026982  00000+0 -47952-1 0  9996", "line2": "2 66563  43.0005  41.9870 0001349 282.5619 167.0143 15.44512358  6016"}}, "geometry": {"type": "Point", "coordinates": [178.9292777532854, 31.320734768270253]}}]}